STARLINK-30242          
1 57739U 23131H   26068.24040964  .00096683  00000+0  35094-2 0  9996
2 57739  43.0006 146.1862 0001698 280.6770  79.3890 15.27276599140181
COSMOS 2576             
1 59773U 24092A   26068.82603826  .00015211  00000+0  56283-3 0  9991
2 59773  97.4253 186.0053 0005946 159.7731 200.3745 15.27760963101271
